{
"type": "FeatureCollection",
"name": "kreis4_boundary",
"crs": { "type": "name", "properties": { "name": "urn:ogc:def:crs:OGC:1.3:CRS84" } },
"features": [
{ "type": "Feature", "properties": { "kreis": 4 }, "geometry": { "type": "Polygon", "coordinates": [ [ [ 8.497619772545304, 47.388341025386076 ], [ 8.497891178024897, 47.388764065802697 ], [ 8.497963608975626, 47.388876955111435 ], [ 8.498401412332221, 47.389559909356379 ], [ 8.498886122690669, 47.390316397660868 ], [ 8.498913025408743, 47.390358373491345 ], [ 8.49896515843712, 47.390387560728193 ], [ 8.500727630797234, 47.391373708785238 ], [ 8.502360679873137, 47.390903673133266 ], [ 8.502871549495479, 47.390756640585003 ], [ 8.50309533047818, 47.390678715147054 ], [ 8.503359521589394, 47.390558922800963 ], [ 8.50360594951475, 47.39042192413001 ], [ 8.504632491046284, 47.389701427180448 ], [ 8.504838213966481, 47.389582584502655 ], [ 8.50506169777938, 47.389479606695183 ], [ 8.505573655249947, 47.389290041303013 ], [ 8.506316698801529, 47.389101657690112 ], [ 8.506470629614986, 47.389220274135184 ], [ 8.506506819668921, 47.389198052185073 ], [ 8.506543664911428, 47.389176332469908 ], [ 8.506581150232678, 47.389155123896884 ], [ 8.506619260254368, 47.389134435163378 ], [ 8.506657979350848, 47.38911427475238 ], [ 8.506697291642823, 47.389094650933288 ], [ 8.506737181009949, 47.389075571752159 ], [ 8.507115832592119, 47.388962223341373 ], [ 8.507384293907858, 47.388881861349432 ], [ 8.507513152554509, 47.388843294949837 ], [ 8.507774200064311, 47.388765150437543 ], [ 8.508622927112834, 47.388659274947969 ], [ 8.508925000210359, 47.388584139020779 ], [ 8.50974552951496, 47.388375783891469 ], [ 8.510048645397671, 47.388295355223647 ], [ 8.510680810887074, 47.388462493481398 ], [ 8.510604728317304, 47.388685611129716 ], [ 8.510593666090466, 47.388769772555975 ], [ 8.510618366836598, 47.388761124021698 ], [ 8.510750789144463, 47.388719426621087 ], [ 8.510781212029274, 47.388587681581207 ], [ 8.510809741826957, 47.388568583108579 ], [ 8.510838049598453, 47.388549332878199 ], [ 8.510866133593879, 47.388529932079344 ], [ 8.510893992077115, 47.388510381911814 ], [ 8.510921623327746, 47.388490683584067 ], [ 8.510949025634742, 47.388470838313978 ], [ 8.510976197305324, 47.388450847330233 ], [ 8.511003134663127, 47.388430713181897 ], [ 8.511029837707429, 47.388410435600825 ], [ 8.511056304784583, 47.388390015844145 ], [ 8.511082534251539, 47.388369455177859 ], [ 8.51110852448244, 47.38834875487656 ], [ 8.511134273867022, 47.388327916224803 ], [ 8.511159780805688, 47.388306940515349 ], [ 8.511200915049558, 47.388273806141157 ], [ 8.511240492705539, 47.388239808656877 ], [ 8.511278474531663, 47.388204981774031 ], [ 8.511314822869545, 47.38816936002484 ], [ 8.511349501681853, 47.388132978731718 ], [ 8.511382476583078, 47.388095873968332 ], [ 8.51141371488356, 47.388058082527593 ], [ 8.511443181298567, 47.388019637738651 ], [ 8.511470851577229, 47.387980582231485 ], [ 8.511496698314362, 47.387940954695964 ], [ 8.511520695905626, 47.387900794387555 ], [ 8.51154282058242, 47.387860141090314 ], [ 8.511563050437923, 47.387819035076888 ], [ 8.511581365430169, 47.387777517068386 ], [ 8.511679278016809, 47.387552145055885 ], [ 8.511684999893129, 47.3875377791788 ], [ 8.511690945902801, 47.387523455343135 ], [ 8.511697115376693, 47.387509175161661 ], [ 8.511703507620291, 47.387494940242206 ], [ 8.511710121909404, 47.387480752187571 ], [ 8.511716957505943, 47.38746661259534 ], [ 8.511724013636369, 47.387452523057682 ], [ 8.511734117852182, 47.387433160580677 ], [ 8.511744639320126, 47.387413900876453 ], [ 8.511755575776547, 47.38739474809244 ], [ 8.511766924861794, 47.387375706351612 ], [ 8.511778684136527, 47.387356779753958 ], [ 8.511790851065866, 47.387337972374802 ], [ 8.51180342302904, 47.387319288264237 ], [ 8.511826050243892, 47.387287371282532 ], [ 8.511849858588333, 47.387255853077633 ], [ 8.511874832835481, 47.387224753805313 ], [ 8.511900957011491, 47.387194093352669 ], [ 8.511928214405499, 47.387163891326132 ], [ 8.511956587589943, 47.387134167041602 ], [ 8.511986058416213, 47.387104939506166 ], [ 8.51236458862275, 47.386844811249865 ], [ 8.512549584712874, 47.386766858742824 ], [ 8.51329840588328, 47.386451500387707 ], [ 8.514051019972138, 47.386249052831147 ], [ 8.514439660912377, 47.386144150298222 ], [ 8.51478670166909, 47.38605053594555 ], [ 8.514828025141602, 47.386039392937974 ], [ 8.515118495070732, 47.385960777562431 ], [ 8.515730022151855, 47.385794111457287 ], [ 8.516027419868712, 47.385714358766265 ], [ 8.516415916435472, 47.385616449004594 ], [ 8.517114497179795, 47.385437611579746 ], [ 8.517181241621723, 47.385420860363659 ], [ 8.517197309857343, 47.385437351253337 ], [ 8.51744858689853, 47.385369413158372 ], [ 8.517531046266997, 47.385347126949434 ], [ 8.517521009873363, 47.385336804372123 ], [ 8.517490297063407, 47.385318543319087 ], [ 8.517950137597182, 47.38519455101985 ], [ 8.518492655778161, 47.385048079021871 ], [ 8.519116901016158, 47.384879341920502 ], [ 8.520566393456049, 47.384497095770264 ], [ 8.522132648932491, 47.384084043430072 ], [ 8.524792372275066, 47.383377592123708 ], [ 8.525012729957771, 47.383316701327693 ], [ 8.525334138379359, 47.383229160670759 ], [ 8.52537106583021, 47.38319910359013 ], [ 8.525409304723548, 47.383169812721945 ], [ 8.525448820617296, 47.383141314451784 ], [ 8.525489577907901, 47.38311363445019 ], [ 8.525531539878898, 47.383086797652382 ], [ 8.525574668733507, 47.383060828232594 ], [ 8.525618925616367, 47.38303574958465 ], [ 8.525690501221863, 47.382996406219959 ], [ 8.525786753206123, 47.382966302440828 ], [ 8.525821101620426, 47.382955779203321 ], [ 8.525855690963095, 47.382945626536561 ], [ 8.525890512567766, 47.382935846984012 ], [ 8.525925557711533, 47.382926442995995 ], [ 8.525960817611283, 47.382917416927739 ], [ 8.525996283434809, 47.382908771041855 ], [ 8.526031946297886, 47.382900507503869 ], [ 8.526108026361506, 47.382883330369992 ], [ 8.52613268509983, 47.382877890340843 ], [ 8.526157449352159, 47.382872676102409 ], [ 8.526182314637133, 47.38286768859782 ], [ 8.526207276455164, 47.382862928730276 ], [ 8.52623233028666, 47.382858397360401 ], [ 8.526257471599951, 47.382854095308922 ], [ 8.526282695844968, 47.382850023353754 ], [ 8.526462305404571, 47.382821922692116 ], [ 8.526465935942314, 47.382821357796303 ], [ 8.52651700406712, 47.382812898618404 ], [ 8.526567736553602, 47.382803554151266 ], [ 8.526618100135979, 47.382793330522119 ], [ 8.526668061792442, 47.382782234432923 ], [ 8.526717588762557, 47.382770273159998 ], [ 8.526766648578693, 47.382757454546216 ], [ 8.526815209069266, 47.382743786995832 ], [ 8.52682414937154, 47.382741161087594 ], [ 8.526833071317597, 47.38273850653642 ], [ 8.526841974707171, 47.382735823402562 ], [ 8.526850859344689, 47.38273311174482 ], [ 8.526859725030871, 47.382730371623524 ], [ 8.526868571567434, 47.382727603099951 ], [ 8.526877398757383, 47.382724806236745 ], [ 8.528356313200467, 47.382238317370373 ], [ 8.528393660379164, 47.382205924535192 ], [ 8.528455321434782, 47.382174750539896 ], [ 8.52870096804515, 47.381945630487806 ], [ 8.528702698966333, 47.38194414594259 ], [ 8.528704272282553, 47.381942582576869 ], [ 8.528705680235575, 47.381940948094524 ], [ 8.528706915891156, 47.381939250550026 ], [ 8.528707973159058, 47.381937498309924 ], [ 8.528708846827548, 47.381935700007531 ], [ 8.528709532592654, 47.3819338645065 ], [ 8.528710027074515, 47.381932000850824 ], [ 8.528710327837105, 47.381930118225185 ], [ 8.528710433398279, 47.381928225906691 ], [ 8.528710343236778, 47.381926333221159 ], [ 8.52871005779757, 47.381924449495067 ], [ 8.528709578487788, 47.381922584011953 ], [ 8.528708907669435, 47.381920745964337 ], [ 8.528708048645875, 47.381918944410359 ], [ 8.52870700565456, 47.381917188227909 ], [ 8.5287057838314, 47.381915486070902 ], [ 8.528704389199762, 47.381913846328217 ], [ 8.528702828630978, 47.381912277080097 ], [ 8.528875740247775, 47.38175377982359 ], [ 8.528739710174777, 47.381524339051587 ], [ 8.529087106993309, 47.381439780748643 ], [ 8.529680918624573, 47.381378197714966 ], [ 8.529691155200965, 47.381377127743939 ], [ 8.529701385031885, 47.381376028429351 ], [ 8.529711607942259, 47.381374899791041 ], [ 8.529721823743095, 47.381373741848329 ], [ 8.52973203225482, 47.381372554621827 ], [ 8.529742233297814, 47.381371338133548 ], [ 8.529752426687208, 47.381370092405014 ], [ 8.529762612722463, 47.381368818492625 ], [ 8.529772791074739, 47.381367516558804 ], [ 8.529782961574762, 47.381366186625819 ], [ 8.529793124059196, 47.381364828714432 ], [ 8.529803278357976, 47.381363442847046 ], [ 8.52981342430693, 47.381362029046876 ], [ 8.529823561737887, 47.381360587337177 ], [ 8.53066383707252, 47.381239714003691 ], [ 8.530674421601654, 47.381238188221054 ], [ 8.530685004060196, 47.381236655816735 ], [ 8.53069558443319, 47.381235116794109 ], [ 8.530706162715477, 47.381233571152968 ], [ 8.530716738896036, 47.381232018895048 ], [ 8.53072731296743, 47.381230460022309 ], [ 8.530737884920459, 47.381228894534679 ], [ 8.53074845667483, 47.381227321754039 ], [ 8.53075902652072, 47.381225743063609 ], [ 8.530769594448094, 47.381224158464775 ], [ 8.530780160450856, 47.381222567957941 ], [ 8.530790724522708, 47.381220971544209 ], [ 8.530801286655571, 47.381219369224986 ], [ 8.530811846842186, 47.38121776100143 ], [ 8.530835963584202, 47.381214022381378 ], [ 8.530860044710193, 47.381210179312141 ], [ 8.530884089235828, 47.381206231949271 ], [ 8.530908096185682, 47.38120218045411 ], [ 8.53093206458259, 47.381198024990852 ], [ 8.53095599344611, 47.381193765729392 ], [ 8.530979881806342, 47.381189402843532 ], [ 8.531003731304457, 47.38118493501598 ], [ 8.5310275384671, 47.381180364214671 ], [ 8.531051302328187, 47.38117569062527 ], [ 8.531075021926444, 47.381170914436517 ], [ 8.531098696302642, 47.381166035840913 ], [ 8.531122324496543, 47.381161055037325 ], [ 8.531145905553467, 47.381155972227127 ], [ 8.531194556362804, 47.381230630289814 ], [ 8.531645216366051, 47.381108432519618 ], [ 8.531979146648013, 47.381017867172133 ], [ 8.532324546937478, 47.380924187891125 ], [ 8.532358380899595, 47.380915007391792 ], [ 8.533258388952659, 47.380671179980034 ], [ 8.534160785820244, 47.380426702139204 ], [ 8.535041566650426, 47.380187621480786 ], [ 8.536054376999791, 47.379913296294781 ], [ 8.536079015609149, 47.379890448502564 ], [ 8.536599826904718, 47.379749511470891 ], [ 8.536652802196912, 47.379734858636418 ], [ 8.536655224830358, 47.379734242740206 ], [ 8.536657583328509, 47.37973352107943 ], [ 8.536659867697869, 47.37973269671415 ], [ 8.536662068254083, 47.379731773136903 ], [ 8.536664175675055, 47.379730754262013 ], [ 8.536666181024307, 47.379729644408457 ], [ 8.536668075807411, 47.379728448279167 ], [ 8.536669851990604, 47.379727170944655 ], [ 8.536671502047623, 47.379725817817665 ], [ 8.536673018982977, 47.379724394632909 ], [ 8.536674396370914, 47.379722907422995 ], [ 8.536675628372194, 47.379721362490272 ], [ 8.536676709765187, 47.379719766382408 ], [ 8.536677635967372, 47.379718125864805 ], [ 8.536678403052095, 47.379716447889471 ], [ 8.536679007768512, 47.379714739568207 ], [ 8.536679447555146, 47.379713008141799 ], [ 8.536679720547074, 47.379711260947616 ], [ 8.536679825587729, 47.379709505390949 ], [ 8.536679793965103, 47.37970775414469 ], [ 8.536679595163596, 47.37970600797955 ], [ 8.536679230017619, 47.379704274251992 ], [ 8.536678700066913, 47.379702560263482 ], [ 8.536678007545722, 47.379700873234313 ], [ 8.536677155367936, 47.379699220270773 ], [ 8.536676147126485, 47.379697608335547 ], [ 8.536674987064305, 47.379696044217695 ], [ 8.536673680070637, 47.379694534506243 ], [ 8.536672231650417, 47.379693085560667 ], [ 8.536670647904771, 47.379691703483324 ], [ 8.536668935503693, 47.379690394096187 ], [ 8.536667101660262, 47.379689162915135 ], [ 8.536665154100138, 47.379688015125929 ], [ 8.536663101026404, 47.379686955562782 ], [ 8.536660951087597, 47.379685988689531 ], [ 8.536658713339385, 47.379685118578202 ], [ 8.53665639720632, 47.379684348894607 ], [ 8.536654012444949, 47.37968368288 ], [ 8.537028106809977, 47.379582916278679 ], [ 8.537008250989148, 47.379548644752347 ], [ 8.537299985040532, 47.379469717882706 ], [ 8.537312782804893, 47.37946618170421 ], [ 8.537325553007014, 47.379462599850605 ], [ 8.537338295293173, 47.3794589724208 ], [ 8.537351009308122, 47.379455299514333 ], [ 8.537363694705027, 47.379451581232601 ], [ 8.537376351126561, 47.379447817679704 ], [ 8.537388978229751, 47.379444008959531 ], [ 8.537401572450019, 47.37944014582142 ], [ 8.537414137226035, 47.379436238705416 ], [ 8.537426672232241, 47.379432287714707 ], [ 8.537439177129926, 47.379428292954238 ], [ 8.537451651588119, 47.379424254529034 ], [ 8.537464095282107, 47.37942017254754 ], [ 8.53747650787713, 47.379416047116713 ], [ 8.537540066890097, 47.379393836237284 ], [ 8.537567483293795, 47.379381791821054 ], [ 8.537685812486995, 47.379582921484811 ], [ 8.538424210156709, 47.379216556885744 ], [ 8.538332672050448, 47.379059195051717 ], [ 8.53785977522873, 47.378251912619817 ], [ 8.537764387320678, 47.378098427872779 ], [ 8.537662709952457, 47.377946882864123 ], [ 8.53763160748052, 47.377903435456069 ], [ 8.537555767918299, 47.377796881038485 ], [ 8.537561707293623, 47.377795277375036 ], [ 8.537558987669346, 47.377790544823839 ], [ 8.537560558601117, 47.377790305001312 ], [ 8.537555339469284, 47.37778317761876 ], [ 8.537549967616346, 47.377776102784047 ], [ 8.537544444184823, 47.377769082006573 ], [ 8.537538770353214, 47.377762116785419 ], [ 8.537532947334588, 47.377755208605436 ], [ 8.537526976368797, 47.377748358943165 ], [ 8.537520858733778, 47.377741569258227 ], [ 8.537514695262939, 47.377734841165932 ], [ 8.537508388099102, 47.377728174799174 ], [ 8.537501938581586, 47.377721571574419 ], [ 8.537495348079888, 47.377715032893271 ], [ 8.537488617994502, 47.37770856014447 ], [ 8.537481749755369, 47.377702154703677 ], [ 8.537474744819587, 47.377695817930821 ], [ 8.537110850209551, 47.377371325438979 ], [ 8.536980668480442, 47.377256580097296 ], [ 8.536689992701461, 47.376998709641583 ], [ 8.535911071699188, 47.376459054391987 ], [ 8.535893574363683, 47.376446627415937 ], [ 8.535902953668183, 47.376440376659353 ], [ 8.535791708707286, 47.376353712807365 ], [ 8.535753852998438, 47.376377711553914 ], [ 8.535610788852216, 47.376273755258758 ], [ 8.535401846122834, 47.376122228393967 ], [ 8.535460162673992, 47.376093160123808 ], [ 8.535452704085746, 47.376088499505514 ], [ 8.534850242025373, 47.375712797877256 ], [ 8.534726055017744, 47.375632840263108 ], [ 8.53457627388733, 47.375507277167941 ], [ 8.534437526464624, 47.375376032229831 ], [ 8.534141444649807, 47.375079527643706 ], [ 8.534103454803262, 47.375037071107265 ], [ 8.534077392604594, 47.375048571175363 ], [ 8.534038419488617, 47.375006591689292 ], [ 8.53406515380955, 47.37499557998801 ], [ 8.534040229895311, 47.374969037840764 ], [ 8.533494732291192, 47.374410979417625 ], [ 8.533435339766463, 47.374434686821587 ], [ 8.533096454169439, 47.37405156635181 ], [ 8.53300513954531, 47.37394258297433 ], [ 8.532988990837795, 47.373924179012889 ], [ 8.532967007773218, 47.373934407857725 ], [ 8.532895165445357, 47.373828325243046 ], [ 8.53282636371957, 47.37372134125232 ], [ 8.532572108183198, 47.373316656761688 ], [ 8.532570093142422, 47.37331718856791 ], [ 8.532540124706008, 47.373269303445774 ], [ 8.532512863097894, 47.373228139031575 ], [ 8.53242988700641, 47.373099493823716 ], [ 8.532448552604949, 47.373094738547017 ], [ 8.532343779633678, 47.372936318900884 ], [ 8.532291454432773, 47.37285718042228 ], [ 8.532088830955624, 47.372550412727151 ], [ 8.532021446420217, 47.372442641248234 ], [ 8.531816350259943, 47.372130076619712 ], [ 8.531738291540087, 47.372011189061389 ], [ 8.531611561032989, 47.371818156365016 ], [ 8.531336615053178, 47.371398625006918 ], [ 8.531187921802685, 47.371156551235572 ], [ 8.531167955382466, 47.371161768377569 ], [ 8.531039987548901, 47.370954678351687 ], [ 8.531060408031907, 47.370949007179512 ], [ 8.531016420320558, 47.370879162188402 ], [ 8.531093317800524, 47.370846574123547 ], [ 8.530994474718925, 47.370716072015021 ], [ 8.530889817314989, 47.370588053491815 ], [ 8.530779785214051, 47.370462001658886 ], [ 8.530665047354457, 47.370338251991996 ], [ 8.530549921611438, 47.370221396154172 ], [ 8.530420263547281, 47.370097697343013 ], [ 8.530289920504284, 47.369980607292867 ], [ 8.530155687422694, 47.369866855074612 ], [ 8.530016244671609, 47.369754717082607 ], [ 8.5298719811802, 47.369645727792545 ], [ 8.529723225694323, 47.369539776139447 ], [ 8.529570527217636, 47.369436515105441 ], [ 8.529217166334584, 47.369204980098516 ], [ 8.529006725355249, 47.36937734386197 ], [ 8.528195957053228, 47.368848902799733 ], [ 8.527981303584532, 47.369002468614674 ], [ 8.527961443661331, 47.369016760299239 ], [ 8.528004856031464, 47.369044469650248 ], [ 8.52797316578023, 47.369288455798369 ], [ 8.527958194295046, 47.369286275021089 ], [ 8.527943029899118, 47.369284835370657 ], [ 8.527927751971138, 47.369284144383968 ], [ 8.527912440490102, 47.369284205677879 ], [ 8.527897175609095, 47.369285018931301 ], [ 8.527882037237024, 47.36928657988696 ], [ 8.527867104621087, 47.36928888037415 ], [ 8.52777721032, 47.369304866906873 ], [ 8.5275209964193, 47.369350414338115 ], [ 8.527275653827726, 47.369394077692981 ], [ 8.527264797154983, 47.369396051009232 ], [ 8.526988995538183, 47.369445289971083 ], [ 8.526717429050269, 47.369493813736156 ], [ 8.526569806150878, 47.369520228793952 ], [ 8.526470872468849, 47.369604572508209 ], [ 8.526346775376251, 47.369710039805732 ], [ 8.526247589464599, 47.369794385692437 ], [ 8.526138510298658, 47.369735190365468 ], [ 8.525969479146884, 47.36964360117728 ], [ 8.525846064398921, 47.369748818632843 ], [ 8.525717194642674, 47.369858611841394 ], [ 8.525593765476701, 47.369963820151519 ], [ 8.525470064972588, 47.37006938168502 ], [ 8.525294967419345, 47.370218657232961 ], [ 8.525150872998067, 47.370341662929029 ], [ 8.524950083350495, 47.370512875852377 ], [ 8.524847318437851, 47.370600456406692 ], [ 8.524798314945187, 47.37064208793354 ], [ 8.524727597008564, 47.370702597508554 ], [ 8.524584147595439, 47.370824894769527 ], [ 8.524440451123446, 47.37094744602755 ], [ 8.524388690080386, 47.370919382067449 ], [ 8.52424419634975, 47.37104248027287 ], [ 8.524194662023911, 47.371084746177608 ], [ 8.523837409127308, 47.37145034590155 ], [ 8.523634240598939, 47.371593567935115 ], [ 8.52363040421505, 47.371591139308116 ], [ 8.523624978252187, 47.371595184111257 ], [ 8.523623798926222, 47.371596060217108 ], [ 8.523622707152157, 47.371596987216577 ], [ 8.523621707680219, 47.371597961078393 ], [ 8.523620804853735, 47.371598977568141 ], [ 8.523620002596799, 47.371600032267267 ], [ 8.523619304400757, 47.371601120589915 ], [ 8.523618713299404, 47.371602237804531 ], [ 8.523618231863034, 47.371603379053028 ], [ 8.523617862183164, 47.371604539374559 ], [ 8.523617605869738, 47.371605713723859 ], [ 8.523617464034251, 47.371606896994926 ], [ 8.523617437296524, 47.371608084043991 ], [ 8.523617525770916, 47.371609269709481 ], [ 8.523617729073118, 47.371610448836229 ], [ 8.523618046319029, 47.371611616298011 ], [ 8.523618476129599, 47.371612767019101 ], [ 8.523619016635736, 47.371613895996909 ], [ 8.522876506632269, 47.372109816070925 ], [ 8.522835735335923, 47.372092811207288 ], [ 8.522660370751801, 47.372216619856481 ], [ 8.522649906750233, 47.372224264965581 ], [ 8.522647383966497, 47.372223272192876 ], [ 8.522221013895452, 47.372524102739298 ], [ 8.521794625586571, 47.372824922814132 ], [ 8.521782182654938, 47.3728166470502 ], [ 8.521256024571956, 47.373187689950441 ], [ 8.520729885636404, 47.373558730162578 ], [ 8.520728690746866, 47.373557922800906 ], [ 8.520393681820092, 47.373794906601468 ], [ 8.520391567746863, 47.373796437578577 ], [ 8.520360597439931, 47.373780869227382 ], [ 8.520198315635819, 47.373901969852867 ], [ 8.520188509257084, 47.373909428668831 ], [ 8.520183079869273, 47.373907455604936 ], [ 8.520042521607152, 47.374020463884591 ], [ 8.519908204354136, 47.374137623275224 ], [ 8.519782337246761, 47.374258823170535 ], [ 8.519666533937629, 47.374384624183598 ], [ 8.519557730754354, 47.374513480869084 ], [ 8.519459396504885, 47.374646017433008 ], [ 8.519370461339905, 47.374781713200278 ], [ 8.519307502083793, 47.374883236331634 ], [ 8.519306045489222, 47.374885849544754 ], [ 8.518954469348067, 47.374964715023708 ], [ 8.518955922498781, 47.374961930940458 ], [ 8.518949440245949, 47.374963547717918 ], [ 8.518521175500197, 47.375080800555033 ], [ 8.51840821935286, 47.375107483530513 ], [ 8.51833526118633, 47.375124725477022 ], [ 8.518176611681699, 47.375162107716562 ], [ 8.518006853353235, 47.37520217513265 ], [ 8.517826616546598, 47.375244669923809 ], [ 8.51757263170277, 47.37530467412536 ], [ 8.516979891536845, 47.375446610697118 ], [ 8.516974045301797, 47.375448249092308 ], [ 8.516968055708617, 47.375449628008965 ], [ 8.516961947687145, 47.375450741708157 ], [ 8.516955746660058, 47.375451585553087 ], [ 8.516949478435537, 47.375452156033056 ], [ 8.516943169102085, 47.375452450773309 ], [ 8.516936844921359, 47.37545246854652 ], [ 8.516930532213101, 47.375452209279608 ], [ 8.516924257254063, 47.375451674051021 ], [ 8.516918046159541, 47.375450865088744 ], [ 8.516911924782139, 47.375449785759137 ], [ 8.516905918596294, 47.375448440555417 ], [ 8.516900052603116, 47.375446835075948 ], [ 8.516894351217896, 47.37544497600328 ], [ 8.516888838168438, 47.375442871073751 ], [ 8.516883536401055, 47.375440529049847 ], [ 8.516878467981078, 47.375437959678962 ], [ 8.516873664371689, 47.375435183888214 ], [ 8.516869133689864, 47.375432203865884 ], [ 8.516864894713583, 47.375429031967954 ], [ 8.516860965017473, 47.375425681341667 ], [ 8.516857360893976, 47.375422165878071 ], [ 8.516854097282295, 47.37541850015139 ], [ 8.516851187711893, 47.37541469935794 ], [ 8.516848644246016, 47.375410779253535 ], [ 8.51684647742829, 47.375406756090285 ], [ 8.516844696240261, 47.375402646545979 ], [ 8.51684330806691, 47.375398467657575 ], [ 8.516842318663592, 47.375394236748058 ], [ 8.5168417321294, 47.375389971357841 ], [ 8.51684155089932, 47.37538568916947 ], [ 8.516841775720676, 47.375381407934661 ], [ 8.51684240566305, 47.375377145401856 ], [ 8.516843438117387, 47.375372919241642 ], [ 8.516584276743513, 47.375427167726599 ], [ 8.516580969446148, 47.375427981163064 ], [ 8.516503641786413, 47.375445946342857 ], [ 8.516499530330741, 47.375446938187523 ], [ 8.516304781215929, 47.375606160494193 ], [ 8.516094614846223, 47.375668972850136 ], [ 8.515904423333536, 47.375728819053016 ], [ 8.515784036445986, 47.375770608533934 ], [ 8.515742503836202, 47.375785414950158 ], [ 8.515662318035226, 47.375814011429334 ], [ 8.515568290261802, 47.375848970502481 ], [ 8.515490152442503, 47.375878006516885 ], [ 8.515360078938141, 47.375931300627215 ], [ 8.515241539039716, 47.375982625110133 ], [ 8.515000073730967, 47.376087158560722 ], [ 8.514820478952467, 47.376164993346002 ], [ 8.514697955804564, 47.37621846821412 ], [ 8.514604835624249, 47.376259093937158 ], [ 8.514438206402867, 47.376331806072592 ], [ 8.514435163278188, 47.376333246643007 ], [ 8.514139250017502, 47.376479491838595 ], [ 8.513987445177941, 47.376554547931832 ], [ 8.513797616115864, 47.376648388678134 ], [ 8.513612298271672, 47.376740073276373 ], [ 8.512809978690168, 47.377136007669748 ], [ 8.512364260277636, 47.377325108451906 ], [ 8.512099347978532, 47.377431148907966 ], [ 8.511626770066263, 47.377620316464601 ], [ 8.511429011404756, 47.377702182441688 ], [ 8.511274169570473, 47.377761584637376 ], [ 8.511031386147717, 47.377858646904571 ], [ 8.510836669494795, 47.377936462801379 ], [ 8.510708858655896, 47.377987508760391 ], [ 8.51058638642292, 47.377976762769919 ], [ 8.510357201443213, 47.377956617380434 ], [ 8.510129064779331, 47.377936569754944 ], [ 8.509983739692823, 47.378018900345914 ], [ 8.50983564152661, 47.378108893288179 ], [ 8.509656092266459, 47.378285917214953 ], [ 8.509672981342343, 47.378363909915045 ], [ 8.509638523946499, 47.378389622493515 ], [ 8.509506599000613, 47.378449565391669 ], [ 8.50952856495433, 47.378471786509756 ], [ 8.509250788061706, 47.378597872641748 ], [ 8.509267200909267, 47.378614604301539 ], [ 8.509035787257934, 47.378719661472353 ], [ 8.508804637501337, 47.378824715722835 ], [ 8.50864501901707, 47.378897156454087 ], [ 8.508413881140156, 47.379002218787214 ], [ 8.508104184059357, 47.379142854873457 ], [ 8.507542541481854, 47.379397900210229 ], [ 8.507095464036746, 47.37960099807762 ], [ 8.506657672849849, 47.379799780634293 ], [ 8.506430634344847, 47.379902948011654 ], [ 8.506402862593784, 47.379915544850029 ], [ 8.506375043453753, 47.379928093358494 ], [ 8.506347177103308, 47.379940593454954 ], [ 8.506319263727145, 47.379953045056432 ], [ 8.506291303503666, 47.37996544808243 ], [ 8.506263296622272, 47.379977802451016 ], [ 8.50623524326326, 47.379990108081991 ], [ 8.505984623648951, 47.38009955515529 ], [ 8.505945659480023, 47.380116609994118 ], [ 8.505404824868837, 47.380352967554593 ], [ 8.505278989071304, 47.380407955951092 ], [ 8.505127059136568, 47.38046932873187 ], [ 8.504941349939021, 47.380544172879837 ], [ 8.504948623638811, 47.380552273267305 ], [ 8.504273447206522, 47.380847280819744 ], [ 8.504261778406438, 47.380852212554714 ], [ 8.504249877350277, 47.380856881234266 ], [ 8.504237756889252, 47.380861281818788 ], [ 8.504225430106104, 47.380865409555767 ], [ 8.504212910310562, 47.380869259988827 ], [ 8.504200211023592, 47.38087282896003 ], [ 8.50418734595646, 47.380876112617187 ], [ 8.504174253760407, 47.38087908917587 ], [ 8.504161023712552, 47.380881769833692 ], [ 8.504147670304752, 47.380884151653781 ], [ 8.504134208163414, 47.380886232026953 ], [ 8.504120652034336, 47.380888008674162 ], [ 8.504107016770096, 47.380889479649902 ], [ 8.504093317303999, 47.380890643342276 ], [ 8.503595022841099, 47.380927754952197 ], [ 8.503584827112944, 47.380928580548364 ], [ 8.503574660754131, 47.380929559059659 ], [ 8.503564528732916, 47.380930690007432 ], [ 8.503554436003183, 47.380931972837921 ], [ 8.503544387501632, 47.380933406924022 ], [ 8.503534388138334, 47.380934991564985 ], [ 8.503524442806562, 47.380936725986153 ], [ 8.503514478390185, 47.380938627000226 ], [ 8.503504578775875, 47.380940678262483 ], [ 8.503494748871201, 47.380942878757132 ], [ 8.503484993552568, 47.380945227391429 ], [ 8.503475317657546, 47.38094772300019 ], [ 8.503465725986448, 47.380950364346489 ], [ 8.503456223297437, 47.380953150119929 ], [ 8.503289999897589, 47.381003903076802 ], [ 8.503285097072458, 47.381005267167303 ], [ 8.503280080301392, 47.381006424446824 ], [ 8.50327496847007, 47.381007370558628 ], [ 8.503269780829358, 47.381008101938988 ], [ 8.503264536910107, 47.381008615834745 ], [ 8.503259256458419, 47.381008910310676 ], [ 8.503253959356885, 47.381008984258486 ], [ 8.503248665549007, 47.381008837399371 ], [ 8.503243394971983, 47.381008470286197 ], [ 8.503238271494199, 47.381007870748391 ], [ 8.503233210473981, 47.381007062734305 ], [ 8.50322823027728, 47.381006049177266 ], [ 8.503223348985177, 47.381004833756471 ], [ 8.503218584315579, 47.38100342088326 ], [ 8.503213953561806, 47.381001815686361 ], [ 8.503209473532213, 47.381000023992449 ], [ 8.50320516049246, 47.380998052304768 ], [ 8.503201030094029, 47.380995907780914 ], [ 8.503075655965736, 47.381305620723481 ], [ 8.503067746552167, 47.381359178251721 ], [ 8.503401803119967, 47.381556887764177 ], [ 8.50364395489623, 47.381552613865004 ], [ 8.50366475729701, 47.381552737590333 ], [ 8.503685507123134, 47.381553749085555 ], [ 8.503706122331504, 47.381555644352822 ], [ 8.503726521402971, 47.38155841589618 ], [ 8.503746623680602, 47.381562052757921 ], [ 8.50376634968303, 47.381566540557571 ], [ 8.503785621410822, 47.381571861550562 ], [ 8.503804279525724, 47.381577953076849 ], [ 8.503822340889021, 47.381584824418859 ], [ 8.503839734936676, 47.38159244873345 ], [ 8.503856393713315, 47.381600796232064 ], [ 8.50387225213542, 47.381609834302964 ], [ 8.503887248246427, 47.381619527636296 ], [ 8.50390132345693, 47.381629838360652 ], [ 8.504257541753057, 47.38190771198181 ], [ 8.504692663562754, 47.382248181717209 ], [ 8.505128789075318, 47.382588892424351 ], [ 8.505564774152903, 47.382929584806163 ], [ 8.505795689886664, 47.383109934960849 ], [ 8.505801826383141, 47.383115078598387 ], [ 8.50580749737972, 47.38312046306207 ], [ 8.505812682438307, 47.383126068946794 ], [ 8.505817362870161, 47.383131876047727 ], [ 8.505821521809761, 47.383137863437248 ], [ 8.50582514426522, 47.383144009536913 ], [ 8.505828217181932, 47.383150292195182 ], [ 8.505830666700925, 47.383156727196649 ], [ 8.505832526978931, 47.383163252586812 ], [ 8.505833790921692, 47.383169843499672 ], [ 8.505834453715773, 47.383176474821099 ], [ 8.505834512835676, 47.38318312128235 ], [ 8.505833968053684, 47.383189757558682 ], [ 8.50583282144763, 47.383196358362042 ], [ 8.505831144067802, 47.38320287139814 ], [ 8.505828881721943, 47.383209302303754 ], [ 8.505826042928661, 47.38321562686793 ], [ 8.505822638375129, 47.383221821277843 ], [ 8.505818680875061, 47.383227862212628 ], [ 8.505814185332534, 47.3832337269288 ], [ 8.505809168671735, 47.383239393347232 ], [ 8.505803589129711, 47.38324483935947 ], [ 8.505797527831971, 47.383250042447443 ], [ 8.505791007647712, 47.383254982981363 ], [ 8.505784053172921, 47.38325964232186 ], [ 8.505776690642621, 47.383264002890165 ], [ 8.505768947839098, 47.383268048236069 ], [ 8.50576085396945, 47.383271763098072 ], [ 8.505288302886479, 47.383475223574052 ], [ 8.504720905556574, 47.383719630292767 ], [ 8.50415261852303, 47.383964177287801 ], [ 8.503584061435072, 47.384208723908372 ], [ 8.502984819223192, 47.384466881019122 ], [ 8.502977559010441, 47.384470078181323 ], [ 8.503162244857077, 47.38461436642676 ], [ 8.503380547337599, 47.384520749177099 ], [ 8.503371862204625, 47.384524761928986 ], [ 8.503363586452982, 47.384529155670087 ], [ 8.50335575625186, 47.384533911196542 ], [ 8.50334840582522, 47.384539007722715 ], [ 8.503341567301057, 47.384544422972567 ], [ 8.503335270569185, 47.384550133276967 ], [ 8.503329543150713, 47.384556113677824 ], [ 8.503324410081792, 47.384562338035686 ], [ 8.503319893795892, 47.384568779145269 ], [ 8.503316014033055, 47.384575408853813 ], [ 8.503312787753897, 47.384582198183793 ], [ 8.503310229055774, 47.384589117460571 ], [ 8.503308349126625, 47.384596136441552 ], [ 8.503307197025709, 47.384603209894351 ], [ 8.50330673385122, 47.384610319538481 ], [ 8.503306961621009, 47.384617434457162 ], [ 8.503307879341708, 47.384624523710443 ], [ 8.503309483023729, 47.384631556470367 ], [ 8.503311765693635, 47.384638502154559 ], [ 8.503314717425228, 47.384645330559934 ], [ 8.503318325384745, 47.384652011991797 ], [ 8.503322573880872, 47.384658517396538 ], [ 8.503327444439815, 47.384664818484104 ], [ 8.503332915878868, 47.384670887854384 ], [ 8.503338964412711, 47.38467669911428 ], [ 8.503345563732539, 47.384682226993334 ], [ 8.503835868144318, 47.385065916249495 ], [ 8.50419874463992, 47.385349755267477 ], [ 8.504213361368603, 47.385340886263137 ], [ 8.504394622724162, 47.385482496628192 ], [ 8.504853707724985, 47.385841508297531 ], [ 8.504999494818895, 47.38595555141535 ], [ 8.505003932657706, 47.385958811164173 ], [ 8.505008697737257, 47.385961850391766 ], [ 8.505013766356727, 47.385964653984622 ], [ 8.505019113311253, 47.385967207997645 ], [ 8.505024712007758, 47.385969499730656 ], [ 8.505030534603481, 47.38597151778589 ], [ 8.505036552139771, 47.385973252127123 ], [ 8.505042734691505, 47.385974694128791 ], [ 8.505049051511433, 47.3859758366196 ], [ 8.505055452377372, 47.38597667445061 ], [ 8.505061924174615, 47.385977204377333 ], [ 8.50506843482907, 47.385977423774854 ], [ 8.505074952079239, 47.385977331554706 ], [ 8.505081443628651, 47.385976928174045 ], [ 8.505087877308029, 47.385976215632496 ], [ 8.505094221234497, 47.385975197460361 ], [ 8.505100443971196, 47.385973878704228 ], [ 8.505106514684149, 47.385972265898005 ], [ 8.504954895356899, 47.386016868550996 ], [ 8.504783001181982, 47.386067576836865 ], [ 8.504601744535741, 47.386121024782327 ], [ 8.504391825748028, 47.386183066246041 ], [ 8.504282198594119, 47.386215470147313 ], [ 8.504183181797849, 47.386244636817722 ], [ 8.503972678836341, 47.386306655910303 ], [ 8.503714969285014, 47.386382494422683 ], [ 8.503640554378977, 47.386404723522993 ], [ 8.503526298810149, 47.386438860428321 ], [ 8.503347543638188, 47.386491680651901 ], [ 8.503133896087574, 47.386554842556222 ], [ 8.502936742433032, 47.386612931835145 ], [ 8.502920194521906, 47.386617977571703 ], [ 8.502706676585404, 47.386681047529329 ], [ 8.502530064109441, 47.386733136126388 ], [ 8.502236200260352, 47.386819999302553 ], [ 8.501638321300197, 47.38699690207244 ], [ 8.501591973416032, 47.387010641140179 ], [ 8.501245869728484, 47.387112833162099 ], [ 8.500919088700954, 47.387209026688069 ], [ 8.500246791138956, 47.387407879598811 ], [ 8.500331565816975, 47.38753985850029 ], [ 8.499653702145627, 47.387740198230723 ], [ 8.498976067983429, 47.387940342920174 ], [ 8.498298735813178, 47.38814060673451 ], [ 8.497619772545304, 47.388341025386076 ] ] ] } }
]
}
